QZS-1R                  
1 49336U 21096A   23337.67688344 -.00000238  00000+0  00000+0 0  9999
2 49336  35.5428  93.5342 0752387 270.9063  86.0077  1.00262120  7716
